FENGYUN 1C DEB          
1 37716U 99025EMH 17345.31526826  .00000587  00000-0  31287-3 0  9996
2 37716  98.9240  18.6466 0035946 329.1743  88.8707 14.16984238190740
